BEIDOU 3 (C01)          
1 36287U 10001A   22283.57410574 -.00000289  00000+0  00000+0 0  9996
2 36287   1.7092  47.9557 0000321 335.1901 343.1580  1.00270324 46667
BEIDOU 5 (C06)          
1 36828U 10036A   22283.65211148 -.00000115  00000+0  00000+0 0  9998
2 36828  54.1984 175.1773 0030215 187.0943 359.3466  1.00265502 44739
BEIDOU 6 (C04)          
1 37210U 10057A   22283.03883502 -.00000123  00000+0  00000+0 0  9997
2 37210   0.7603  39.9151 0007253 149.6652   2.9847  1.00270934 43787
BEIDOU 7 (C07)          
1 37256U 10068A   22283.26875032 -.00000200  00000+0  00000+0 0  9999
2 37256  50.0101 288.2704 0023807 206.0805  89.3549  1.00270770 43294
BEIDOU 8 (C08)          
1 37384U 11013A   22283.26617741 -.00000193  00000+0  00000+0 0  9994
2 37384  60.4608  53.1259 0024566 178.8996 351.0804  1.00277217 42179
BEIDOU 9 (C09)          
1 37763U 11038A   22283.49086603 -.00000065  00000+0  00000+0 0  9992
2 37763  54.4791 177.6832 0098893 227.6207 243.8265  1.00257641 41152
BEIDOU 10 (C10)         
1 37948U 11073A   22283.48842670 -.00000154  00000+0  00000+0 0  9998
2 37948  50.1268 287.9148 0086688 220.1410 142.6113  1.00268023 39912
BEIDOU 11 (C05)         
1 38091U 12008A   22283.63729883  .00000049  00000+0  00000+0 0  9996
2 38091   1.8195  69.9508 0009806 339.8008 257.5799  1.00272680 38986
BEIDOU 12 (C11)         
1 38250U 12018A   22283.55296319 -.00000104  00000+0  00000+0 0  9991
2 38250  56.6578 349.7590 0023747 251.0450  88.7939  1.86234373 71227
BEIDOU 13 (C12)         
1 38251U 12018B   22283.53161368 -.00000103  00000+0  00000+0 0  9994
2 38251  56.5736 349.0759 0014389 251.0398 118.6368  1.86234200 71235
BEIDOU 15 (C14)         
1 38775U 12050B   22282.79782271  .00000036  00000+0  00000+0 0  9994
2 38775  55.4778 107.8328 0011377 334.4729  99.0590  1.86231615 68591
BEIDOU 16 (C02)         
1 38953U 12059A   22283.64190235 -.00000183  00000+0  00000+0 0  9993
2 38953   1.2050  81.3310 0023776 295.4105 317.6043  1.00267774 36552
BEIDOU 17 (C31)         
1 40549U 15019A   22283.53654109 -.00000168  00000+0  00000+0 0  9992
2 40549  51.6873 311.4172 0038650 198.5987 158.0516  1.00272409 27585
BEIDOU 18 (C57)         
1 40748U 15037A   22283.12706410 -.00000103  00000+0  00000+0 0  9990
2 40748  55.8228 347.8869 0000950  14.6372 353.1042  1.86233423 49055
BEIDOU 19 (C58)         
1 40749U 15037B   22282.39642494 -.00000100  00000+0  00000+0 0  9997
2 40749  55.8264 347.9011 0003497 294.8687  77.1844  1.86233052 49035
BEIDOU 20 (C18)         
1 40938U 15053A   22283.45188223 -.00000143  00000+0  00000+0 0  9995
2 40938  51.3254 274.5468 0046023 200.1086 163.1750  1.00266663 25868
BEIDOU IGSO-6 (C13)     
1 41434U 16021A   22283.30358825 -.00000157  00000+0  00000+0 0  9999
2 41434  58.2710  51.6484 0045733 215.2983 315.2399  1.00260993 23985
BEIDOU-2 G7 (C03)       
1 41586U 16037A   22283.61973052 -.00000362  00000+0  00000+0 0  9991
2 41586   1.6284  68.3779 0007432 352.4266 292.0472  1.00268666 23298
BEIDOU-3 M1 (C19)       
1 43001U 17069A   22283.28905025  .00000030  00000+0  00000+0 0  9990
2 43001  55.6205 107.8352 0007422 294.2753 264.9710  1.86231676 33539
BEIDOU-3 M2 (C20)       
1 43002U 17069B   22283.19886605  .00000032  00000+0  00000+0 0  9995
2 43002  55.6196 107.8746 0005960 326.8524 214.7908  1.86231325 33521
BEIDOU-3 M3 (C27)       
1 43107U 18003A   22283.21521071 -.00000105  00000+0  00000+0 0  9998
2 43107  55.2749 348.7498 0003405  68.1570 290.7390  1.86232262 32288
BEIDOU-3 M4 (C28)       
1 43108U 18003B   22283.28341686 -.00000105  00000+0  00000+0 0  9998
2 43108  55.2682 348.7364 0003996 241.0290 206.8429  1.86230933 32298
BEIDOU-3 M5 (C21)       
1 43207U 18018A   22283.05975176  .00000033  00000+0  00000+0 0  9995
2 43207  55.5792 107.9537 0004457   7.7957 352.2667  1.86231648 31675
BEIDOU-3 M6 (C22)       
1 43208U 18018B   22282.58949656  .00000039  00000+0  00000+0 0  9993
2 43208  55.5786 107.9744 0005385 310.4761  49.5346  1.86231570 31660
BEIDOU-3 M7 (C29)       
1 43245U 18029A   22283.30865671 -.00000103  00000+0  00000+0 0  9994
2 43245  55.1840 346.5079 0001114 213.6408 118.4353  1.86232732 30820
BEIDOU-3 M8 (C30)       
1 43246U 18029B   22283.27621278 -.00000103  00000+0  10000-3 0  9999
2 43246  55.1803 346.5373 0002881 348.8782   8.0737  1.86232936 30810
BEIDOU IGSO-7 (C16)     
1 43539U 18057A   22283.62117552 -.00000122  00000+0  00000+0 0  9995
2 43539  55.0903 174.7135 0051566 227.0810 315.5871  1.00275495 15660
BEIDOU-3 M9 (C23)       
1 43581U 18062A   22283.22394589 -.00000021  00000+0  00000+0 0  9999
2 43581  54.2482 228.1569 0005524 281.1115 252.1155  1.86231974 28569
BEIDOU-3 M10 (C24)      
1 43582U 18062B   22283.48647367 -.00000018  00000+0  00000+0 0  9999
2 43582  54.2479 228.1369 0005390 347.8104  93.3570  1.86232455 28575
BEIDOU-3 M11 (C25)      
1 43602U 18067A   22283.37264277 -.00000019  00000+0  00000+0 0  9991
2 43602  54.3312 226.7663 0007149   3.8947  42.0834  1.86231564 28062
BEIDOU-3 M12 (C26)      
1 43603U 18067B   22283.16854759 -.00000021  00000+0  00000+0 0  9992
2 43603  54.3280 226.7394 0004401 348.4900 191.0044  1.86231501 28073
BEIDOU-3 M13 (C32)      
1 43622U 18072A   22283.13363338  .00000032  00000+0  00000+0 0  9995
2 43622  55.5462 107.5028 0004296 289.4859 255.5917  1.86231752 27586
BEIDOU-3 M14 (C33)      
1 43623U 18072B   22283.52695935  .00000027  00000+0  00000+0 0  9994
2 43623  55.5489 107.4809 0002840 339.8118 199.2149  1.86231789 27595
BEIDOU-3 M15 (C34)      
1 43647U 18078A   22283.41607297 -.00000104  00000+0  10000-3 0  9990
2 43647  55.0787 346.6524 0005220 358.7285   1.6272  1.86232601 27102
BEIDOU-3 M16 (C35)      
1 43648U 18078B   22283.54588402 -.00000104  00000+0  00000+0 0  9996
2 43648  55.0749 346.6540 0002991  11.3094 343.6408  1.86232048 27117
BEIDOU-3 G1 (C59)       
1 43683U 18085A   22283.55378789 -.00000286  00000+0  00000+0 0  9990
2 43683   1.0258 148.6977 0004576  46.5996 163.1519  1.00276631 14552
BEIDOU-3 M17 (C36)      
1 43706U 18093A   22283.16691210 -.00000022  00000+0  00000+0 0  9997
2 43706  54.3294 228.0527 0010058 280.2841  79.5718  1.86231945 26479
BEIDOU-3 M18 (C37)      
1 43707U 18093B   22283.30049535 -.00000020  00000+0  00000+0 0  9999
2 43707  54.3313 228.0385 0009163 302.0049 238.7450  1.86232286 26462
BEIDOU-3 IGSO-1 (C38)   
1 44204U 19023A   22283.27579198 -.00000223  00000+0  00000+0 0  9990
2 44204  56.7309  51.7424 0023858 189.1876 356.9804  1.00275136 12862
BEIDOU-2 G8             
1 44231U 19027A   22283.65693874 -.00000256  00000+0  00000+0 0  9990
2 44231   1.1366  79.2713 0006407 121.6589 199.2927  1.00267936 12579
BEIDOU-3 IGSO-2 (C39)   
1 44337U 19035A   22283.58804519 -.00000119  00000+0  00000+0 0  9996
2 44337  55.1259 170.7006 0025470 190.6635 349.1761  1.00269248 12207
BEIDOU-3 M23 (C45)      
1 44542U 19061A   22283.10321381 -.00000022  00000+0  00000+0 0  9995
2 44542  54.5563 228.2197 0008893 337.2305  22.6986  1.86231505 20726
BEIDOU-3 M24 (C46)      
1 44543U 19061B   22283.50176741 -.00000018  00000+0  00000+0 0  9993
2 44543  54.5541 228.1747 0006354 319.8449 218.7520  1.86231810 20729
BEIDOU-3 IGSO-3         
1 44709U 19073A   22283.43729766 -.00000174  00000+0  10000-3 0  9991
2 44709  57.0778 295.1897 0027418 182.9562 178.4433  1.00274091 10955
BEIDOU-3 M21            
1 44793U 19078A   22282.40620319 -.00000101  00000+0  10000-3 0  9999
2 44793  54.9281 346.6945 0004951  12.3212 344.6893  1.86232368 19562
BEIDOU-3 M22            
1 44794U 19078B   22283.07556473 -.00000103  00000+0  00000+0 0  9990
2 44794  54.9018 346.6613 0002855   2.5609 355.0843  1.86232790 19576
BEIDOU-3 M19            
1 44864U 19090A   22283.09280572  .00000032  00000+0  00000+0 0  9998
2 44864  55.4813 107.7086 0014856 269.4611 294.1189  1.86231941 19162
BEIDOU-3 M20            
1 44865U 19090B   22283.46369042  .00000028  00000+0  00000+0 0  9995
2 44865  55.4835 107.7280 0012969 285.7918 256.2986  1.86231918 19143
BEIDOU-3 G2             
1 45344U 20017A   22283.57245713 -.00000152  00000+0  00000+0 0  9998
2 45344   2.0118 357.9794 0003814 167.1308 140.1486  1.00270616  9770
BEIDOU-3 G3             
1 45807U 20040A   22283.50882528 -.00000365  00000+0  00000+0 0  9998
2 45807   1.1903 307.2904 0009018 334.5201  31.0065  1.00268688  8586
